{
  "type": "FeatureCollection",
  "features": [
    {
      "type": "Feature",
      "properties": {
        "norad_id": 66605,
        "name": "STARLINK-36052",
        "group": "last-30-days",
        "lat": 28.03477119740648,
        "lon": -35.0834857293574,
        "alt_km": 410.7851948408688,
        "timestamp": "2025-12-14T22:38:39.517297+00:00",
        "meta_object_name": "STARLINK-36052",
        "meta_object_id": "2025-270T",
        "meta_epoch": "2025-12-14T06:36:00.841536",
        "meta_mean_motion": 15.50589496,
        "meta_eccentricity": 0.00011727,
        "meta_inclination": 42.9993,
        "meta_ra_of_asc_node": 183.6793,
        "meta_arg_of_pericenter": 272.4287,
        "meta_mean_anomaly": 87.6439,
        "meta_ephemeris_type": 0,
        "meta_classification_type": "U",
        "meta_norad_cat_id": 66605,
        "meta_element_set_no": 999,
        "meta_rev_at_epoch": 458,
        "meta_bstar": 0.001606387,
        "meta_mean_motion_dot": 0.00095085,
        "meta_mean_motion_ddot": 0,
        "tle_line1": "1 66605U 25270T   25348.27500974  .00095085  00000+0  16064-2 0  9990",
        "tle_line2": "2 66605  42.9993 183.6793 0001172 272.4287  87.6439 15.50589496  4587"
      },
      "geometry": {
        "type": "Point",
        "coordinates": [
          -35.0834857293574,
          28.03477119740648
        ]
      }
    },
    {
      "type": "Feature",
      "properties": {
        "norad_id": 66606,
        "name": "STARLINK-36063",
        "group": "last-30-days",
        "lat": 25.824092333448487,
        "lon": -31.531879112809673,
        "alt_km": 411.21640413409295,
        "timestamp": "2025-12-14T22:38:39.517307+00:00",
        "meta_object_name": "STARLINK-36063",
        "meta_object_id": "2025-270U",
        "meta_epoch": "2025-12-14T06:35:01.284288",
        "meta_mean_motion": 15.50597871,
        "meta_eccentricity": 0.00017964,
        "meta_inclination": 42.999,
        "meta_ra_of_asc_node": 183.6725,
        "meta_arg_of_pericenter": 262.3668,
        "meta_mean_anomaly": 97.6989,
        "meta_ephemeris_type": 0,
        "meta_classification_type": "U",
        "meta_norad_cat_id": 66606,
        "meta_element_set_no": 999,
        "meta_rev_at_epoch": 458,
        "meta_bstar": 0.00168214,
        "meta_mean_motion_dot": 0.00099675,
        "meta_mean_motion_ddot": 0,
        "tle_line1": "1 66606U 25270U   25348.27432042  .00099675  00000+0  16821-2 0  9991",
        "tle_line2": "2 66606  42.9990 183.6725 0001796 262.3668  97.6989 15.50597871  4580"
      },
      "geometry": {
        "type": "Point",
        "coordinates": [
          -31.531879112809673,
          25.824092333448487
        ]
      }
    },
    {
      "type": "Feature",
      "properties": {
        "norad_id": 66607,
        "name": "STARLINK-35993",
        "group": "last-30-days",
        "lat": 26.926414644333814,
        "lon": -33.267412977841445,
        "alt_km": 410.99286895145724,
        "timestamp": "2025-12-14T22:38:39.517318+00:00",
        "meta_object_name": "STARLINK-35993",
        "meta_object_id": "2025-270V",
        "meta_epoch": "2025-12-14T06:35:30.891840",
        "meta_mean_motion": 15.50599245,
        "meta_eccentricity": 0.00016058,
        "meta_inclination": 42.999,
        "meta_ra_of_asc_node": 183.6761,
        "meta_arg_of_pericenter": 262.8291,
        "meta_mean_anomaly": 97.2386,
        "meta_ephemeris_type": 0,
        "meta_classification_type": "U",
        "meta_norad_cat_id": 66607,
        "meta_element_set_no": 999,
        "meta_rev_at_epoch": 448,
        "meta_bstar": 0.0016788235,
        "meta_mean_motion_dot": 0.0009948,
        "meta_mean_motion_ddot": 0,
        "tle_line1": "1 66607U 25270V   25348.27466310  .00099480  00000+0  16788-2 0  9993",
        "tle_line2": "2 66607  42.9990 183.6761 0001605 262.8291  97.2386 15.50599245  4480"
      },
      "geometry": {
        "type": "Point",
        "coordinates": [
          -33.267412977841445,
          26.926414644333814
        ]
      }
    },
    {
      "type": "Feature",
      "properties": {
        "norad_id": 66608,
        "name": "STARLINK-36036",
        "group": "last-30-days",
        "lat": 24.675097453756916,
        "lon": -29.78866940633758,
        "alt_km": 411.28739941350614,
        "timestamp": "2025-12-14T22:38:39.517328+00:00",
        "meta_object_name": "STARLINK-36036",
        "meta_object_id": "2025-270W",
        "meta_epoch": "2025-12-14T06:34:31.700928",
        "meta_mean_motion": 15.50602423,
        "meta_eccentricity": 0.00016313,
        "meta_inclination": 42.9988,
        "meta_ra_of_asc_node": 183.67,
        "meta_arg_of_pericenter": 265.9794,
        "meta_mean_anomaly": 94.088,
        "meta_ephemeris_type": 0,
        "meta_classification_type": "U",
        "meta_norad_cat_id": 66608,
        "meta_element_set_no": 999,
        "meta_rev_at_epoch": 442,
        "meta_bstar": 0.0019333539,
        "meta_mean_motion_dot": 0.00114854,
        "meta_mean_motion_ddot": 0,
        "tle_line1": "1 66608U 25270W   25348.27397802  .00114854  00000+0  19334-2 0  9996",
        "tle_line2": "2 66608  42.9988 183.6700 0001631 265.9794  94.0880 15.50602423  4423"
      },
      "geometry": {
        "type": "Point",
        "coordinates": [
          -29.78866940633758,
          24.675097453756916
        ]
      }
    },
    {
      "type": "Feature",
      "properties": {
        "norad_id": 66609,
        "name": "STARLINK-36034",
        "group": "last-30-days",
        "lat": 23.54117217749173,
        "lon": -28.12747352308235,
        "alt_km": 411.48089396069736,
        "timestamp": "2025-12-14T22:38:39.517338+00:00",
        "meta_object_name": "STARLINK-36034",
        "meta_object_id": "2025-270X",
        "meta_epoch": "2025-12-14T06:34:01.985376",
        "meta_mean_motion": 15.50600819,
        "meta_eccentricity": 0.00017596,
        "meta_inclination": 42.9989,
        "meta_ra_of_asc_node": 183.6676,
        "meta_arg_of_pericenter": 262.0789,
        "meta_mean_anomaly": 97.9871,
        "meta_ephemeris_type": 0,
        "meta_classification_type": "U",
        "meta_norad_cat_id": 66609,
        "meta_element_set_no": 999,
        "meta_rev_at_epoch": 442,
        "meta_bstar": 0.0017241329,
        "meta_mean_motion_dot": 0.00102216,
        "meta_mean_motion_ddot": 0,
        "tle_line1": "1 66609U 25270X   25348.27363409  .00102216  00000+0  17241-2 0  9997",
        "tle_line2": "2 66609  42.9989 183.6676 0001759 262.0789  97.9871 15.50600819  4429"
      },
      "geometry": {
        "type": "Point",
        "coordinates": [
          -28.12747352308235,
          23.54117217749173
        ]
      }
    },
    {
      "type": "Feature",
      "properties": {
        "norad_id": 66610,
        "name": "STARLINK-35680",
        "group": "last-30-days",
        "lat": 22.347222108431797,
        "lon": -26.43675984180971,
        "alt_km": 411.753243007468,
        "timestamp": "2025-12-14T22:38:39.517349+00:00",
        "meta_object_name": "STARLINK-35680",
        "meta_object_id": "2025-270Y",
        "meta_epoch": "2025-12-14T06:33:32.282784",
        "meta_mean_motion": 15.50607541,
        "meta_eccentricity": 0.00017051,
        "meta_inclination": 42.9987,
        "meta_ra_of_asc_node": 183.6643,
        "meta_arg_of_pericenter": 275.4875,
        "meta_mean_anomaly": 84.579,
        "meta_ephemeris_type": 0,
        "meta_classification_type": "U",
        "meta_norad_cat_id": 66610,
        "meta_element_set_no": 999,
        "meta_rev_at_epoch": 469,
        "meta_bstar": 0.0019646353,
        "meta_mean_motion_dot": 0.00116768,
        "meta_mean_motion_ddot": 0,
        "tle_line1": "1 66610U 25270Y   25348.27329031  .00116768  00000+0  19646-2 0  9990",
        "tle_line2": "2 66610  42.9987 183.6643 0001705 275.4875  84.5790 15.50607541  4698"
      },
      "geometry": {
        "type": "Point",
        "coordinates": [
          -26.43675984180971,
          22.347222108431797
        ]
      }
    },
    {
      "type": "Feature",
      "properties": {
        "norad_id": 66611,
        "name": "STARLINK-35583",
        "group": "last-30-days",
        "lat": 21.171195821627983,
        "lon": -24.8217810157624,
        "alt_km": 411.93260612896574,
        "timestamp": "2025-12-14T22:38:39.517360+00:00",
        "meta_object_name": "STARLINK-35583",
        "meta_object_id": "2025-270Z",
        "meta_epoch": "2025-12-14T06:33:02.505888",
        "meta_mean_motion": 15.50607099,
        "meta_eccentricity": 0.00018283,
        "meta_inclination": 42.999,
        "meta_ra_of_asc_node": 183.6615,
        "meta_arg_of_pericenter": 271.1187,
        "meta_mean_anomaly": 88.9463,
        "meta_ephemeris_type": 0,
        "meta_classification_type": "U",
        "meta_norad_cat_id": 66611,
        "meta_element_set_no": 999,
        "meta_rev_at_epoch": 469,
        "meta_bstar": 0.001824079,
        "meta_mean_motion_dot": 0.0010827,
        "meta_mean_motion_ddot": 0,
        "tle_line1": "1 66611U 25270Z   25348.27294567  .00108270  00000+0  18241-2 0  9995",
        "tle_line2": "2 66611  42.9990 183.6615 0001828 271.1187  88.9463 15.50607099  4690"
      },
      "geometry": {
        "type": "Point",
        "coordinates": [
          -24.8217810157624,
          21.171195821627983
        ]
      }
    }
  ]
}